{
  "norad_id": 37387,
  "name": "RESOURCESAT-2",
  "history": [
    {
      "epoch": "2026-03-28T15:29:04.276896Z",
      "apogee_km": 824.204601459167,
      "perigee_km": 810.5097052568462,
      "latitude_deg": 8.048466033168715e-05,
      "longitude_deg": 97.28320472514866,
      "height_km": 823.38923003026,
      "semi_major_axis_km": 7195.494153358006,
      "eccentricity": 0.00095163,
      "inclination_deg": 98.7711,
      "raan_deg": 155.6137,
      "arg_perigee_deg": 117.2326,
      "mean_anomaly_deg": 242.9823,
      "mean_motion_rev_day": 14.22367515
    },
    {
      "epoch": "2026-03-29T03:18:09.142848Z",
      "apogee_km": 824.2660840202161,
      "perigee_km": 810.4780495464456,
      "latitude_deg": -4.1172652631640776e-08,
      "longitude_deg": -79.9825065508173,
      "height_km": 823.2967236505874,
      "semi_major_axis_km": 7195.50906678333,
      "eccentricity": 0.0009581,
      "inclination_deg": 98.7709,
      "raan_deg": 156.1036,
      "arg_perigee_deg": 116.0394,
      "mean_anomaly_deg": 244.1771,
      "mean_motion_rev_day": 14.22363093
    },
    {
      "epoch": "2026-03-29T23:33:43.087680Z",
      "apogee_km": 824.3015780041342,
      "perigee_km": 810.4448961202152,
      "latitude_deg": 1.4091190104970456e-05,
      "longitude_deg": -23.865870280039008,
      "height_km": 823.0689792996425,
      "semi_major_axis_km": 7195.510237062174,
      "eccentricity": 0.00096287,
      "inclination_deg": 98.7709,
      "raan_deg": 156.9437,
      "arg_perigee_deg": 113.8197,
      "mean_anomaly_deg": 246.3991,
      "mean_motion_rev_day": 14.22362746
    },
    {
      "epoch": "2026-03-30T14:45:23.256864Z",
      "apogee_km": 824.272890581743,
      "perigee_km": 810.4399861760658,
      "latitude_deg": 2.2414032760039882e-05,
      "longitude_deg": 108.22254197254115,
      "height_km": 822.8588980871382,
      "semi_major_axis_km": 7195.493438378904,
      "eccentricity": 0.00096122,
      "inclination_deg": 98.7708,
      "raan_deg": 157.5735,
      "arg_perigee_deg": 112.1264,
      "mean_anomaly_deg": 248.0935,
      "mean_motion_rev_day": 14.22367727
    },
    {
      "epoch": "2026-03-30T21:30:34.477632Z",
      "apogee_km": 824.2817214760207,
      "perigee_km": 810.4301097937059,
      "latitude_deg": 7.188988493294798e-05,
      "longitude_deg": 6.928540849443694,
      "height_km": 822.7968571710378,
      "semi_major_axis_km": 7195.492915634863,
      "eccentricity": 0.00096252,
      "inclination_deg": 98.7707,
      "raan_deg": 157.8536,
      "arg_perigee_deg": 111.5481,
      "mean_anomaly_deg": 248.6724,
      "mean_motion_rev_day": 14.22367882
    },
    {
      "epoch": "2026-03-31T19:27:25.574688Z",
      "apogee_km": 824.2919214756103,
      "perigee_km": 810.3816315708355,
      "latitude_deg": -2.603861761188123e-06,
      "longitude_deg": 37.72409623583312,
      "height_km": 822.5084634165178,
      "semi_major_axis_km": 7195.473776523223,
      "eccentricity": 0.0009666,
      "inclination_deg": 98.7706,
      "raan_deg": 158.7634,
      "arg_perigee_deg": 109.0926,
      "mean_anomaly_deg": 251.1299,
      "mean_motion_rev_day": 14.22373557
    },
    {
      "epoch": "2026-04-01T19:05:43.016064Z",
      "apogee_km": 825.6325727910898,
      "perigee_km": 810.5967245963093,
      "latitude_deg": -7.759600175341449e-06,
      "longitude_deg": 43.16044039214544,
      "height_km": 823.5659935887452,
      "semi_major_axis_km": 7196.251648693699,
      "eccentricity": 0.0010447,
      "inclination_deg": 98.7705,
      "raan_deg": 159.7432,
      "arg_perigee_deg": 109.8832,
      "mean_anomaly_deg": 250.3472,
      "mean_motion_rev_day": 14.22142938
    },
    {
      "epoch": "2026-04-02T18:44:05.815104Z",
      "apogee_km": 825.70532116709,
      "perigee_km": 810.5298594870083,
      "latitude_deg": -1.6898192995586817e-05,
      "longitude_deg": 48.574299990067445,
      "height_km": 823.3005492983996,
      "semi_major_axis_km": 7196.254590327049,
      "eccentricity": 0.0010544,
      "inclination_deg": 98.7704,
      "raan_deg": 160.7229,
      "arg_perigee_deg": 107.5596,
      "mean_anomaly_deg": 252.6734,
      "mean_motion_rev_day": 14.22142066
    },
    {
      "epoch": "2026-04-02T22:06:43.356960Z",
      "apogee_km": 825.7087745635199,
      "perigee_km": 810.5269795744653,
      "latitude_deg": 4.481165258626895e-06,
      "longitude_deg": -2.0808199543986405,
      "height_km": 823.2551500717087,
      "semi_major_axis_km": 7196.254877068993,
      "eccentricity": 0.00105484,
      "inclination_deg": 98.7704,
      "raan_deg": 160.8629,
      "arg_perigee_deg": 107.1914,
      "mean_anomaly_deg": 253.0419,
      "mean_motion_rev_day": 14.22141981
    },
    {
      "epoch": "2026-04-03T20:03:47.249856Z",
      "apogee_km": 825.6933194625253,
      "perigee_km": 810.5322604050925,
      "latitude_deg": 3.459425521764672e-05,
      "longitude_deg": 28.661256138576135,
      "height_km": 822.9306038441201,
      "semi_major_axis_km": 7196.249789933809,
      "eccentricity": 0.0010534,
      "inclination_deg": 98.7701,
      "raan_deg": 161.7727,
      "arg_perigee_deg": 104.7071,
      "mean_anomaly_deg": 255.5275,
      "mean_motion_rev_day": 14.22143489
    },
    {
      "epoch": "2026-04-04T06:11:39.810624Z",
      "apogee_km": 825.6875009594578,
      "perigee_km": 810.5366620682198,
      "latitude_deg": 5.6877149599420164e-05,
      "longitude_deg": -123.30392708486151,
      "height_km": 822.814755142664,
      "semi_major_axis_km": 7196.249081513838,
      "eccentricity": 0.00105269,
      "inclination_deg": 98.7703,
      "raan_deg": 162.1926,
      "arg_perigee_deg": 103.8197,
      "mean_anomaly_deg": 256.4153,
      "mean_motion_rev_day": 14.22143699
    },
    {
      "epoch": "2026-04-05T14:16:48.439776Z",
      "apogee_km": 828.7321074374686,
      "perigee_km": 810.8717176549899,
      "latitude_deg": 2.8250610439443262e-05,
      "longitude_deg": 115.42130661611947,
      "height_km": 825.3611528976996,
      "semi_major_axis_km": 7197.938912546229,
      "eccentricity": 0.00124066,
      "inclination_deg": 98.7701,
      "raan_deg": 163.5215,
      "arg_perigee_deg": 107.4071,
      "mean_anomaly_deg": 252.8464,
      "mean_motion_rev_day": 14.21642922
    },
    {
      "epoch": "2026-04-05T19:20:51.157824Z",
      "apogee_km": 828.7308342219121,
      "perigee_km": 810.8756236899644,
      "latitude_deg": -5.0786023624120656e-05,
      "longitude_deg": 39.41168155312502,
      "height_km": 825.2755246026343,
      "semi_major_axis_km": 7197.9402289559375,
      "eccentricity": 0.0012403,
      "inclination_deg": 98.77,
      "raan_deg": 163.7313,
      "arg_perigee_deg": 106.8291,
      "mean_anomaly_deg": 253.4247,
      "mean_motion_rev_day": 14.21642532
    },
    {
      "epoch": "2026-04-06T05:28:56.597376Z",
      "apogee_km": 828.7306844517252,
      "perigee_km": 810.8741802667182,
      "latitude_deg": -7.468924322622699e-06,
      "longitude_deg": -112.60751407450982,
      "height_km": 825.1129292187622,
      "semi_major_axis_km": 7197.939432359221,
      "eccentricity": 0.00124039,
      "inclination_deg": 98.77,
      "raan_deg": 164.151,
      "arg_perigee_deg": 105.7478,
      "mean_anomaly_deg": 254.5068,
      "mean_motion_rev_day": 14.21642768
    },
    {
      "epoch": "2026-04-07T20:19:57.343872Z",
      "apogee_km": 828.7507451229139,
      "perigee_km": 810.8552267299037,
      "latitude_deg": 4.7004887752467274e-05,
      "longitude_deg": 24.652441445908348,
      "height_km": 824.4787441818737,
      "semi_major_axis_km": 7197.939985926409,
      "eccentricity": 0.0012431,
      "inclination_deg": 98.7698,
      "raan_deg": 165.7596,
      "arg_perigee_deg": 101.5355,
      "mean_anomaly_deg": 258.7219,
      "mean_motion_rev_day": 14.21642604
    },
    {
      "epoch": "2026-04-08T14:54:47.187936Z",
      "apogee_km": 828.7307778325994,
      "perigee_km": 810.8686659809828,
      "latitude_deg": -1.5818494919950101e-06,
      "longitude_deg": 105.95108841175838,
      "height_km": 824.1603222472279,
      "semi_major_axis_km": 7197.936721906791,
      "eccentricity": 0.00124078,
      "inclination_deg": 98.7698,
      "raan_deg": 166.529,
      "arg_perigee_deg": 99.5023,
      "mean_anomaly_deg": 260.7557,
      "mean_motion_rev_day": 14.21643571
    },
    {
      "epoch": "2026-04-09T19:37:43.145472Z",
      "apogee_km": 828.7732539112503,
      "perigee_km": 810.8891820768222,
      "latitude_deg": -1.7235781931106612e-05,
      "longitude_deg": 35.22722538823893,
      "height_km": 823.6570519051422,
      "semi_major_axis_km": 7197.968217994036,
      "eccentricity": 0.0012423,
      "inclination_deg": 98.7694,
      "raan_deg": 167.7176,
      "arg_perigee_deg": 96.0349,
      "mean_anomaly_deg": 264.2244,
      "mean_motion_rev_day": 14.2163424
    },
    {
      "epoch": "2026-04-10T10:49:51.600288Z",
      "apogee_km": 828.7710912066832,
      "perigee_km": 810.892775969437,
      "latitude_deg": 6.459415355181509e-05,
      "longitude_deg": 167.19704455512445,
      "height_km": 823.4002602073307,
      "semi_major_axis_km": 7197.96893358806,
      "eccentricity": 0.0012419,
      "inclination_deg": 98.7693,
      "raan_deg": 168.347,
      "arg_perigee_deg": 94.3805,
      "mean_anomaly_deg": 265.8792,
      "mean_motion_rev_day": 14.21634028
    },
    {
      "epoch": "2026-04-11T18:55:29.984736Z",
      "apogee_km": 828.7918599706472,
      "perigee_km": 810.9307469804025,
      "latitude_deg": -7.992247936917634e-05,
      "longitude_deg": 45.797875426080005,
      "height_km": 822.8566241574287,
      "semi_major_axis_km": 7197.998303475524,
      "eccentricity": 0.0012407,
      "inclination_deg": 98.7691,
      "raan_deg": 169.6758,
      "arg_perigee_deg": 90.7052,
      "mean_anomaly_deg": 269.5546,
      "mean_motion_rev_day": 14.21625327
    }
  ]
}